#cP2017  4 30  0  0  0.00000000      96 ORBIT IGS14 HLM  IGS
## 1947      0.00000000   900.00000000 57873 0.0000000000000
+   32   G01G02G03G04G05G06G07G08G09G10G11G12G13G14G15G16G17
+        G18G19G20G21G22G23G24G25G26G27G28G29G30G31G32  0  0
+          0  0  0  0  0  0  0  0  0  0  0  0  0  0  0  0  0
+          0  0  0  0  0  0  0  0  0  0  0  0  0  0  0  0  0
+          0  0  0  0  0  0  0  0  0  0  0  0  0  0  0  0  0
++         2  2  2  0  3  2  2  2  2  2  2  2  2  2  2  2  3
++         2  3  2  2  2  2  2  2  2  2  2  2  2  2  3  0  0
++         0  0  0  0  0  0  0  0  0  0  0  0  0  0  0  0  0
++         0  0  0  0  0  0  0  0  0  0  0  0  0  0  0  0  0
++         0  0  0  0  0  0  0  0  0  0  0  0  0  0  0  0  0
%c G  cc GPS ccc cccc cccc cccc cccc ccccc ccccc ccccc ccccc
%c cc cc ccc ccc cccc cccc cccc cccc ccccc ccccc ccccc ccccc
%f  1.2500000  1.025000000  0.00000000000  0.000000000000000
%f  0.0000000  0.000000000  0.00000000000  0.000000000000000
%i    0    0    0    0      0      0      0      0         0
%i    0    0    0    0      0      0      0      0         0
/* RAPID ORBIT COMBINATION FROM WEIGHTED AVERAGE OF:        
/* cod emr esa gfz jpl ngs sio usn whu                      
/* REFERENCED TO IGS TIME (IGST) AND TO WEIGHTED MEAN POLE: 
/* PCV:IGS14_1930 OL/AL:FES2004  NONE     Y  ORB:CMB CLK:CMB
*  2017  4 30 13 30  0.00000000
PG01 -22146.829291 -13024.791453   7161.015011     54.013099  7  4  5  99       
PG02  11413.559295  20821.779321  12731.971659    429.151488  3  5  4  97       
PG03 -14227.552584  -6046.050518  21599.593457   -102.517795  4  3  6  70       
PG04   7037.902192 -25365.613232   1902.105332 999999.999999
PG05   3846.361504  23722.507700 -11163.997023    -48.227249  6  4  5  93       
PG06  -2877.029005  16429.423241  20689.670504    344.698261  5  6  4  66       
PG07 -19814.220083  -1455.131635 -17663.081796    356.700632 10  8  7  94       
PG08 -15966.494660  -8578.564802 -19391.889552    -58.103203  7  8  7  96       
PG09 -25336.637408   7871.881144   1358.994634    353.515893  6  5  6  76       
PG10  10763.376976 -22511.585536  -8908.914607    -65.083011  6     3 118       
PG11 -23906.663273 -11086.297404  -3640.083367   -684.858912  9  6  8 107       
PG12  11047.210441  11995.749047  20852.217673    384.502355  5  6  6  97       
PG13   7950.755282  13429.636860 -21604.017427    -80.027481  4  4  1  83       
PG14   9289.778347 -16140.458552  19142.960235    -68.936523  8  9  8 103       
PG15  19500.026069   5880.255669 -17399.126775   -348.971582  8  7  7  60       
PG16   -895.082008 -23937.421585 -11141.069292     32.373311  9  5  3 123       
PG17 -17805.276743  14552.610794  13510.236145   -181.746897 11  7  8  88       
PG18  14392.655034 -14948.772912 -15883.216554    613.136119 10  5  4  83       
PG19 -11503.008467  15354.877279  18222.408939   -505.377623  5  6  4  85       
PG20  14011.726393  10725.501580 -19996.909315    470.353937  8  7  7  94       
PG21  16400.833734  -5073.246471 -19516.635794   -509.639698  8  8  4 119       
PG22 -11415.871385 -15959.871988  18117.287556     24.959964  7  7  7  90       
PG23 -23833.715066  -1145.893620  12352.507046   -210.874784  8  7  6  94       
PG24  22176.462972  14180.761098   4325.564535    -34.117516  4  5  6  17       
PG25  15356.539624  -4252.154745  21058.443014   -379.069802  7  7  6  94       
PG26   4407.949959 -26135.805913   -648.300866   -509.127458  4     4  69       
PG27  -3475.871130 -14564.468082 -21977.294858    249.530476  7  6  7 101       
PG28 -13134.431180  20029.232404 -10846.820336    609.038732  9  2  5  95       
PG29  25861.365923  -4256.558379   4183.614765    608.300058 10  7  7  64       
PG30 -11030.612567  10876.363913 -21582.356961    157.925550     6     87       
PG31   1725.096463 -17293.163406  20038.765454    204.016768  6  5  4  71       
PG32  16632.460424 -15755.234239  13415.553034   -400.323482 10  7  8 108       
*  2017  4 30 13 45  0.00000000
PG01 -22527.445560 -13614.214729   4410.724463     54.013584  7  4  5 111       
PG02  10094.092802  20085.738225  14900.286112    429.144504  2  6  5  68       
PG03 -13782.934672  -8447.723696  21078.439489   -102.516403  5  4  6  88       
PG04   7172.002000 -24922.159576   4782.128231 999999.999999
PG05   3407.595552  24800.763781  -8644.401321    -48.225767  6  5  4  95       
PG06  -4780.278542  14959.119623  21441.411408    344.702827  5  6  4  54       
PG07 -21190.737080  -2818.372072 -15862.528586    356.696655 10  9  8 114       
PG08 -13863.690016  -9493.685011 -20537.097325    -58.104063  8  8  6  99       
PG09 -25137.077966   7502.782323   4177.159395    353.523033  7  6  6  92       
PG10  10809.961276 -21317.519528 -11434.741147    -65.075149  5     2 102       
PG11 -23296.264843 -11330.767169  -6295.216839   -684.861134  8  6  8  96       
PG12  10472.548908  14266.324029  19714.716033    384.502007  6  6  6  89       
PG13   5566.749637  14054.715585 -21955.710496    -80.028834  4  4  1  97       
PG14  11303.170039 -16584.193479  17581.134997    -68.938096  8  9  8  96       
PG15  17710.952423   6878.825785 -18864.070297   -348.972348  8  6  7  84       
PG16   -455.102417 -24979.024531  -8509.931814     32.373988  8  5  3 115       
PG17 -19150.348717  14811.744930  11097.665442   -181.745351 12  7  9  86       
PG18  14387.462425 -12903.093817 -17553.405522    613.137825 10  6  4  63       
PG19 -13483.355688  15769.461490  16476.777998   -505.376679  6  7  5  72       
PG20  13721.918757  12918.024076 -18861.559502    470.355521  8  7  7 112       
PG21  18160.913867  -3554.234257 -18315.384653   -509.637327  8  8  5 111       
PG22 -10978.067088 -17873.121777  16501.280504     24.948995  7  7  7  78       
PG23 -22514.088671  -1871.366827  14544.922826   -210.875476  7  7  6  89       
PG24  22279.616757  14610.360326   1540.467497    -34.117021  4  5  7  87       
PG25  15000.110668  -1801.650781  21673.613946   -379.075692  7  7  5  73       
PG26   4658.898991 -26006.556577   2207.093530   -509.124326  2  1  3  59       
PG27  -1145.193620 -15417.785133 -21617.736669    249.536312  7  6  6  99       
PG28 -12937.191925  18566.310465 -13275.433349    609.041236  9  3  5 105       
PG29  25309.208958  -3881.448983   6986.747089    608.297201 10  7  7  45       
PG30 -12824.761515   9192.672422 -21384.241971    157.924834     6     89       
PG31   3551.783016 -15822.828073  21027.473048    204.014775  7  5  4  81       
PG32  18017.706022 -16053.646556  11059.251175   -400.333385 10  8  8 101       
*  2017  4 30 14  0  0.00000000
PG01 -22686.139122 -13995.528823   1585.590738     54.014052  7  4  5  79       
PG02   8551.455563  19293.611256  16823.656021    429.138011  2  6  5  55       
PG03 -13472.041040 -10789.918885  20194.736129   -102.515051  5  5  6  84       
PG04   7289.670292 -24163.702587   7578.042472 999999.999999
PG05   3048.138586  25607.123316  -5974.757270    -48.224107  7  6  4  77       
PG06  -6810.849138  13554.503831  21824.933393    344.707426  6  6  4  92       
PG07 -22461.144428  -3971.567245 -13790.797782    356.692730  9  9  8  98       
PG08 -11711.587106 -10565.266951 -21327.914642    -58.105023  8  8  6  97       
PG09 -24670.404677   6992.927492   6923.449569    353.530108  8  7  6  92       
PG10  10890.126643 -19853.495892 -13762.345942    -65.067311  5     1  99       
PG11 -22418.155267 -11528.757860  -8843.253147   -684.863826  8  6  8  68       
PG12  10051.651340  16416.065579  18235.380863    384.501537  6  6  6 104       
PG13   3202.727793  14812.801828 -21933.696447    -80.030094  5  4  1  61       
PG14  13112.049797 -17068.617610  15720.870927    -68.939376  9  9  8 105       
PG15  15841.582428   8031.720516 -20012.088522   -348.972963  7  6  6  77       
PG16   -127.568578 -25739.858134  -5729.554978     32.374830  6  4  2 118       
PG17 -20218.423451  15040.046876   8495.672467   -181.743818 12  7  9 105       
PG18  14463.514300 -10683.558758 -18905.586595    613.139847  9  6  4  88       
PG19 -15230.633245  16223.148066  14445.472250   -505.375499  7  7  5 101       
PG20  13536.900870  14977.320823 -17405.378822    470.356465  8  6  7  89       
PG21  19855.069091  -2212.495876 -16779.597814   -509.635435  9  9  5  98       
PG22 -10640.994999 -19610.622292  14605.369955     24.938288  6  6  7  83       
PG23 -21022.571444  -2758.499618  16495.531034   -210.875957  6  6  5 106       
PG24  22144.556312  14856.715752  -1270.774209    -34.117214  4  5  7 111       
PG25  14771.864291    711.081595  21909.891810   -379.081595  6  7  5  96       
PG26   4886.356010 -25570.051007   5024.294808   -509.121184  1  2  3  69       
PG27   1081.441245 -16371.844331 -20886.925352    249.542118  7  5  6  89       
PG28 -12774.731271  16827.762304 -15466.978503    609.044046  8  4  4  95       
PG29  24487.416608  -3365.704741   9669.373188    608.294436 10  7  7  85       
PG30 -14666.937383   7629.418188 -20818.813510    157.924133  2  7    102       
PG31   5522.869982 -14397.374139  21654.130133    204.012803  8  5  5  99       
PG32  19133.122100 -16308.387056   8512.302099   -400.343367 11  8  8 100       
EOF
